SatCatId,ObjectName,LaunchYear,OrbitalPeriod,LaunchMass,StatusCode,Inclination,Status,UcsData,OrbitClassEstimated,LaunchSiteCountry,Owner,UseType,Purpose,LaunchVehicleClass,TLE1,TLE2,MeanMotion,Eccentricity,OrbitClass
56377,STARLINK-6189,2023,95.84,-1.0,+,43.01,Active,0,LEO,USA,USA,Unknown,Unknown,Unknown,1 56377U 23061D   24165.35876921  .00000149  00000+0  26071-4 0  9992,2 56377  43.0058  44.3485 0000820 287.4145  72.6608 15.02531745 61334,15.02531745,8.2e-05,LEO
56378,STARLINK-6191,2023,95.84,-1.0,+,43.0,Active,0,LEO,USA,USA,Unknown,Unknown,Unknown,1 56378U 23061E   24165.34877693  .00001217  00000+0  10515-3 0  9991,2 56378  43.0009  44.2723 0000915 281.7774  78.2966 15.02536356 61337,15.02536356,9.15e-05,LEO
56379,STARLINK-6157,2023,95.84,-1.0,+,43.01,Active,0,LEO,USA,USA,Unknown,Unknown,Unknown,1 56379U 23061F   24165.34763739  .00002327  00000+0  18712-3 0  9997,2 56379  43.0057  44.2660 0001093 274.8844  85.1873 15.02565996 62438,15.02565996,0.0001093,LEO
56380,STARLINK-6161,2023,95.84,-1.0,+,43.0,Active,0,LEO,USA,USA,Unknown,Unknown,Unknown,1 56380U 23061G   24165.35099720 -.00000696  00000+0 -36488-4 0  9992,2 56380  43.0005  44.2866 0001176 281.5775  78.4935 15.02531555 61337,15.02531555,0.0001176,LEO
56381,STARLINK-6159,2023,95.84,-1.0,+,43.01,Active,0,LEO,USA,USA,Unknown,Unknown,Unknown,1 56381U 23061H   24165.35431839 -.00003336  00000+0 -23190-3 0  9993,2 56381  43.0050  44.3142 0001104 270.5173  89.5543 15.02553823 61337,15.02553823,0.0001104,LEO
56382,STARLINK-6160,2023,95.84,-1.0,+,43.01,Active,0,LEO,USA,USA,Unknown,Unknown,Unknown,1 56382U 23061J   24165.07619789 -.00004789  00000+0 -33952-3 0  9995,2 56382  43.0051  45.6640 0001721 271.8405  88.2240 15.02555776 61297,15.02555776,0.0001721,LEO
56383,STARLINK-6166,2023,95.84,-1.0,+,43.0,Active,0,LEO,USA,USA,Unknown,Unknown,Unknown,1 56383U 23061K   24164.41363983  .00000725  00000+0  68708-4 0  9997,2 56383  43.0029  49.2967 0001469 264.9199  95.1475 15.02540696 61198,15.02540696,0.0001469,LEO
56384,STARLINK-6153,2023,95.84,-1.0,+,43.01,Active,0,LEO,USA,USA,Unknown,Unknown,Unknown,1 56384U 23061L   24164.93547936  .00000805  00000+0  74676-4 0  9997,2 56384  43.0094  46.3298 0001167 275.8650  84.2059 15.02533417 61273,15.02533417,0.0001167,LEO
56385,STARLINK-6173,2023,95.84,-1.0,+,43.0,Active,0,LEO,USA,USA,Unknown,Unknown,Unknown,1 56385U 23061M   24165.00639772 -.00000301  00000+0 -71958-5 0  9991,2 56385  43.0039  46.0011 0001284 269.5946  90.4749 15.02534887 61289,15.02534887,0.0001284,LEO
56386,STARLINK-5836,2023,95.84,-1.0,+,43.01,Active,0,LEO,USA,USA,Unknown,Unknown,Unknown,1 56386U 23061N   24165.39416179  .00001334  00000+0  11381-3 0  9995,2 56386  43.0053  43.7489 0001109 264.0275  96.0441 15.02538159 61344,15.02538159,0.0001109,LEO
56387,STARLINK-6178,2023,95.84,-1.0,+,43.0,Active,0,LEO,USA,USA,Unknown,Unknown,Unknown,1 56387U 23061P   24164.40473796  .00003098  00000+0  24416-3 0  9997,2 56387  43.0030  49.2274 0002452 268.1730  91.8831 15.02555493 61195,15.02555493,0.0002452,LEO
56388,STARLINK-6176,2023,95.84,-1.0,+,43.0,Active,0,LEO,USA,USA,Unknown,Unknown,Unknown,1 56388U 23061Q   24165.38528498  .00000914  00000+0  82685-4 0  9993,2 56388  43.0036  43.6782 0000640 288.1611  71.9161 15.02533845 61340,15.02533845,6.4e-05,LEO
56389,STARLINK-6145,2023,95.84,-1.0,+,43.0,Active,0,LEO,USA,USA,Unknown,Unknown,Unknown,1 56389U 23061R   24165.06510745  .00002559  00000+0  20449-3 0  9991,2 56389  43.0049  45.5813 0001190 270.7621  89.3085 15.02531582 61298,15.02531582,0.000119,LEO
56390,STARLINK-6300,2023,95.84,-1.0,+,43.01,Active,0,LEO,USA,USA,Unknown,Unknown,Unknown,1 56390U 23061S   24165.32473080  .00001462  00000+0  12326-3 0  9999,2 56390  43.0051  31.9587 0001082 270.0796  89.9922 15.02540824 61471,15.02540824,0.0001082,LEO
56391,STARLINK-6298,2023,95.84,-1.0,+,43.0,Active,0,LEO,USA,USA,Unknown,Unknown,Unknown,1 56391U 23061T   24165.39083232  .00000211  00000+0  30671-4 0  9998,2 56391  43.0041  43.7223 0001159 268.2864  91.7846 15.02536060 61348,15.0253606,0.0001159,LEO
56392,STARLINK-6301,2023,95.84,-1.0,+,43.0,Active,0,LEO,USA,USA,Unknown,Unknown,Unknown,1 56392U 23061U   24165.32696111 -.00000218  00000+0 -10590-5 0  9996,2 56392  43.0011  31.9775 0000749  36.5220 323.5673 15.02533704 61473,15.02533704,7.49e-05,LEO
56393,STARLINK-6303,2023,95.84,-1.0,+,43.0,Active,0,LEO,USA,USA,Unknown,Unknown,Unknown,1 56393U 23061V   24165.38750400  .00001880  00000+0  15424-3 0  9998,2 56393  43.0047  43.6955 0001006 263.8353  96.2375 15.02534324 61340,15.02534324,0.0001006,LEO
56394,STARLINK-6305,2023,95.84,-1.0,+,43.01,Active,0,LEO,USA,USA,Unknown,Unknown,Unknown,1 56394U 23061W   24165.31585046  .00000076  00000+0  20724-4 0  9990,2 56394  43.0069  31.8875 0001255 259.5368 100.5333 15.02538009 61470,15.02538009,0.0001255,LEO
56395,STARLINK-6273,2023,95.84,-1.0,+,43.0,Active,0,LEO,USA,USA,Unknown,Unknown,Unknown,1 56395U 23061X   24165.31918280 -.00000085  00000+0  87936-5 0  9991,2 56395  43.0043  31.9145 0001091 273.3623  86.7094 15.02533356 62188,15.02533356,0.0001091,LEO
56396,STARLINK-6302,2023,95.84,-1.0,+,43.0,Active,0,LEO,USA,USA,Unknown,Unknown,Unknown,1 56396U 23061Y   24164.04721496  .00002033  00000+0  16552-3 0  9990,2 56396  43.0043  38.7100 0001259 274.0696  86.0002 15.02543795 61571,15.02543795,0.0001259,LEO
56397,STARLINK-6271,2023,95.84,-1.0,+,43.0,Active,0,LEO,USA,USA,Unknown,Unknown,Unknown,1 56397U 23061Z   24165.32140088  .00002589  00000+0  20667-3 0  9993,2 56397  43.0049  31.9302 0001155 276.5798  83.4913 15.02532938 61470,15.02532938,0.0001155,LEO
56398,STARLINK-6288,2023,95.84,-1.0,+,43.0,Active,0,LEO,USA,USA,Unknown,Unknown,Unknown,1 56398U 23061AA  24165.04106280 -.00000278  00000+0 -54780-5 0  9999,2 56398  43.0037  33.2636 0001389 265.1806  94.8878 15.02533623 61430,15.02533623,0.0001389,LEO
56399,STARLINK-6277,2023,95.84,-1.0,+,43.01,Active,0,LEO,USA,USA,Unknown,Unknown,Unknown,1 56399U 23061AB  24165.31252519 -.00000719  00000+0 -38171-4 0  9992,2 56399  43.0059  31.8606 0001327 273.6044  86.4647 15.02531332 61476,15.02531332,0.0001327,LEO
56400,STARLINK-6267,2023,95.84,-1.0,+,43.0,Active,0,LEO,USA,USA,Unknown,Unknown,Unknown,1 56400U 23061AC  24165.63380910  .00000412  00000+0  45537-4 0  9999,2 56400  43.0050  29.9746 0001179 268.2574  91.8134 15.02539659 61523,15.02539659,0.0001179,LEO
56401,STARLINK-6256,2023,95.84,-1.0,+,43.0,Active,0,LEO,USA,USA,Unknown,Unknown,Unknown,1 56401U 23061AD  24165.30944571 -.00004404  00000+0 -31114-3 0  9995,2 56401  43.0009  18.8342 0001482 270.5660  89.5012 15.02537205 61621,15.02537205,0.0001482,LEO
56403,STARLINK-6284,2023,95.84,-1.0,+,43.0,Active,0,LEO,USA,USA,Unknown,Unknown,Unknown,1 56403U 23061AF  24165.03773423  .00000135  00000+0  25046-4 0  9996,2 56403  43.0042  33.2423 0001158 268.6429  91.4281 15.02535289 61431,15.02535289,0.0001158,LEO
56404,STARLINK-6287,2023,95.84,-1.0,+,43.0,Active,0,LEO,USA,USA,Unknown,Unknown,Unknown,1 56404U 23061AG  24165.62493797  .00000870  00000+0  79503-4 0  9998,2 56404  43.0064  29.9048 0001318 258.1782 101.8912 15.02530551 61529,15.02530551,0.0001318,LEO
56405,STARLINK-6285,2023,95.84,-1.0,+,43.0,Active,0,LEO,USA,USA,Unknown,Unknown,Unknown,1 56405U 23061AH  24165.63047901  .00002412  00000+0  19353-3 0  9992,2 56405  43.0032  29.9462 0001011 257.2562 102.8168 15.02541406 61526,15.02541406,0.0001011,LEO
56406,STARLINK-6283,2023,95.84,-1.0,+,43.01,Active,0,LEO,USA,USA,Unknown,Unknown,Unknown,1 56406U 23061AJ  24165.35014780 -.00000808  00000+0 -44746-4 0  9995,2 56406  43.0054  31.2815 0001093 276.6472  83.4246 15.02528951 61480,15.02528951,0.0001093,LEO
56407,STARLINK-6282,2023,95.84,-1.0,+,43.01,Active,0,LEO,USA,USA,Unknown,Unknown,Unknown,1 56407U 23061AK  24165.62714357 -.00009986  00000+0 -72436-3 0  9995,2 56407  43.0024  29.9204 0000975 290.0381  70.0357 15.02580736 61520,15.02580736,9.75e-05,LEO
56408,STARLINK-6289,2023,95.84,-1.0,+,43.01,Active,0,LEO,USA,USA,Unknown,Unknown,Unknown,1 56408U 23061AL  24165.34793228  .00003199  00000+0  25193-3 0  9995,2 56408  43.0064  31.2525 0000542 274.7963  85.2817 15.02516536 61483,15.02516536,5.42e-05,LEO
56409,STARLINK-6241,2023,95.84,-1.0,+,43.01,Active,0,LEO,USA,USA,Unknown,Unknown,Unknown,1 56409U 23061AM  24165.62158999 -.00012392  00000+0 -90262-3 0  9993,2 56409  43.0062  29.8799 0000734 323.4705  36.6087 15.02589209 61528,15.02589209,7.34e-05,LEO
56410,STARLINK-6281,2023,95.84,-1.0,+,43.01,Active,0,LEO,USA,USA,Unknown,Unknown,Unknown,1 56410U 23061AN  24165.34126381  .00001286  00000+0  11028-3 0  9995,2 56410  43.0101  31.2131 0000938 281.1292  78.9445 15.02537162 61481,15.02537162,9.38e-05,LEO
56411,STARLINK-6279,2023,95.84,-1.0,+,43.0,Active,0,LEO,USA,USA,Unknown,Unknown,Unknown,1 56411U 23061AP  24165.35347694  .00001611  00000+0  13431-3 0  9991,2 56411  43.0032  31.3073 0000935 268.9245  91.1490 15.02526748 61484,15.02526748,9.35e-05,LEO
56412,STARLINK-6278,2023,95.84,-1.0,+,43.01,Active,0,LEO,USA,USA,Unknown,Unknown,Unknown,1 56412U 23061AQ  24165.33572571 -.00000936  00000+0 -54262-4 0  9993,2 56412  43.0051  31.1737 0001160  61.9927 298.1032 15.02532416 61480,15.02532416,0.000116,LEO
56413,STARLINK-6258,2023,95.84,-1.0,+,43.01,Active,0,LEO,USA,USA,Unknown,Unknown,Unknown,1 56413U 23061AR  24165.34459133  .00001367  00000+0  11621-3 0  9991,2 56413  43.0062  31.2419 0001193 267.7310  92.3396 15.02537741 61482,15.02537741,0.0001193,LEO
56414,STARLINK-5136,2023,95.84,-1.0,+,43.01,Active,0,LEO,USA,USA,Unknown,Unknown,Unknown,1 56414U 23061AS  24165.33127596 -.00000237  00000+0 -24807-5 0  9995,2 56414  43.0057  31.1382 0001093 281.8929  78.1791 15.02535048 61486,15.02535048,0.0001093,LEO
56415,STARLINK-6268,2023,95.84,-1.0,+,43.01,Active,0,LEO,USA,USA,Unknown,Unknown,Unknown,1 56415U 23061AT  24165.33904514 -.00000107  00000+0  71687-5 0  9992,2 56415  43.0112  31.1957 0000909 282.4076  77.6665 15.02536119 61486,15.02536119,9.09e-05,LEO
